STARLINK-37367          
1 68971U 26099W   26132.83335648 -.00041735  00000+0 -20881-3 0  9994
2 68971  53.1592 331.5756 0000917  16.9918  35.2311 15.80885227  2877
