{
  "norad_id": 68971,
  "name": "STARLINK-37367",
  "history": [
    {
      "epoch": "2026-05-12T20:00:01.999008Z",
      "apogee_km": 328.55167762901056,
      "perigee_km": 327.3204426151715,
      "latitude_deg": 39.373145000934294,
      "longitude_deg": -161.34751264839218,
      "height_km": 330.8814926439365,
      "semi_major_axis_km": 6706.07306012209,
      "eccentricity": 9.18e-05,
      "inclination_deg": 53.1592,
      "raan_deg": 331.5756,
      "arg_perigee_deg": 16.9918,
      "mean_anomaly_deg": 35.2311,
      "mean_motion_rev_day": 15.80885227
    }
  ]
}